NORAD_CAT_ID,OBJECT_NAME,OBJECT_TYPE,EPOCH,MEAN_MOTION,ECCENTRICITY,INCLINATION,RA_OF_ASC_NODE,ARG_OF_PERICENTER,MEAN_ANOMALY,BSTAR,MEAN_MOTION_DOT,MEAN_MOTION_DDOT,TLE_LINE0,TLE_LINE1,TLE_LINE2,SEMIMAJOR_AXIS,PERIOD,APOGEE,PERIGEE,DECAYED
53161.0,STARLINK-4055,PAYLOAD,2024-07-09 19:30:02,15.0884113,0.0001278,53.2192,12.9922,113.4769,246.6358,-1.9282e-05,-5.95e-06,0.0,0 STARLINK-4055,1 53161U 22083AF  24191.81253302 -.00000595  00000-0 -19282-4 0  9999,2 53161  53.2192  12.9922 0001278 113.4769 246.6358 15.08841130110225,6917.877,95.437,540.626,538.858,0.0
53161.0,STARLINK-4055,PAYLOAD,2024-07-09 21:05:25,15.08842287,0.0001357,53.2194,12.6955,117.2167,242.8964,-8.4598e-06,-4.23e-06,0.0,0 STARLINK-4055,1 53161U 22083AF  24191.87877199 -.00000423  00000-0 -84598-5 0  9994,2 53161  53.2194  12.6955 0001357 117.2167 242.8964 15.08842287109607,6917.873,95.437,540.677,538.8,0.0
53161.0,STARLINK-4055,PAYLOAD,2024-07-10 20:56:13,15.08841106,0.0001322,53.2198,8.2302,88.8794,271.235,5.8215e-05,6.39e-06,0.0,0 STARLINK-4055,1 53161U 22083AF  24192.87237275  .00000639  00000-0  58215-4 0  9993,2 53161  53.2198   8.2302 0001322  88.8794 271.2350 15.08841106109759,6917.877,95.437,540.657,538.827,0.0
53161.0,STARLINK-4055,PAYLOAD,2024-07-12 04:43:55,15.08840829,0.000102,53.2181,2.278,119.6743,240.4351,3.3841e-05,2.51e-06,0.0,0 STARLINK-4055,1 53161U 22083AF  24194.19717023  .00000251  00000-0  33841-4 0  9992,2 53161  53.2181   2.2780 0001020 119.6743 240.4351 15.08840829110580,6917.878,95.438,540.448,539.037,0.0
53161.0,STARLINK-4055,PAYLOAD,2024-07-12 11:05:28,15.08840402,0.0001273,53.2172,1.0936,92.7713,267.3424,2.6183e-05,1.29e-06,0.0,0 STARLINK-4055,1 53161U 22083AF  24194.46213297  .00000129  00000-0  26183-4 0  9991,2 53161  53.2172   1.0936 0001273  92.7713 267.3424 15.08840402109997,6917.879,95.438,540.625,538.864,0.0
53161.0,STARLINK-4055,PAYLOAD,2024-07-12 17:27:00,15.08841126,0.0001029,53.2164,359.9042,100.4778,259.633,3.2473e-05,2.29e-06,0.0,0 STARLINK-4055,1 53161U 22083AF  24194.72709141  .00000229  00000-0  32473-4 0  9998,2 53161  53.2164 359.9042 0001029 100.4778 259.6330 15.08841126110039,6917.877,95.437,540.454,539.03,0.0
53161.0,STARLINK-4055,PAYLOAD,2024-07-13 10:56:15,15.08843437,0.0001181,53.2185,356.6338,107.5925,252.5196,-6.3154e-05,-1.293e-05,0.0,0 STARLINK-4055,1 53161U 22083AF  24195.45573406 -.00001293  00000-0 -63154-4 0  9996,2 53161  53.2185 356.6338 0001181 107.5925 252.5196 15.08843437110775,6917.87,95.437,540.552,538.918,0.0
53161.0,STARLINK-4055,PAYLOAD,2024-07-13 17:17:47,15.08847488,0.0001158,53.2197,355.4441,103.9794,256.1327,1.2772e-05,-8.5e-07,0.0,0 STARLINK-4055,1 53161U 22083AF  24195.72068833 -.00000085  00000-0  12772-4 0  9996,2 53161  53.2197 355.4441 0001158 103.9794 256.1327 15.08847488110189,6917.858,95.437,540.524,538.921,0.0
53161.0,STARLINK-4055,PAYLOAD,2024-07-14 10:47:02,15.08833767,0.0001245,53.2193,352.1738,95.5475,264.566,7.8441e-05,9.61e-06,0.0,0 STARLINK-4055,1 53161U 22083AF  24196.44933599  .00000961  00000-0  78441-4 0  9993,2 53161  53.2193 352.1738 0001245  95.5475 264.5660 15.08833767110927,6917.899,95.438,540.626,538.903,0.0
53161.0,STARLINK-4055,PAYLOAD,2024-07-14 13:57:48,15.08836036,0.0001245,53.219,351.5798,91.9293,268.1842,7.8905e-05,9.68e-06,0.0,0 STARLINK-4055,1 53161U 22083AF  24196.58181501  .00000968  00000-0  78905-4 0  9998,2 53161  53.2190 351.5798 0001245  91.9293 268.1842 15.08836036110318,6917.893,95.438,540.619,538.896,0.0
53161.0,STARLINK-4055,PAYLOAD,2024-07-14 17:08:34,15.08840514,0.0001051,53.2178,350.9846,82.7685,277.3426,9.2503e-05,1.185e-05,0.0,0 STARLINK-4055,1 53161U 22083AF  24196.71429209  .00001185  00000-0  92503-4 0  9995,2 53161  53.2178 350.9846 0001051  82.7685 277.3426 15.08840514110337,6917.879,95.438,540.471,539.017,0.0
53161.0,STARLINK-4055,PAYLOAD,2024-07-15 10:37:50,15.08834043,0.0001182,53.2187,347.7138,88.1114,272.0013,2.8746e-05,1.7e-06,0.0,0 STARLINK-4055,1 53161U 22083AF  24197.44294031  .00000170  00000-0  28746-4 0  9990,2 53161  53.2187 347.7138 0001182  88.1114 272.0013 15.08834043111073,6917.899,95.438,540.581,538.946,0.0
53161.0,STARLINK-4055,PAYLOAD,2024-07-15 13:48:36,15.08834846,0.0001205,53.219,347.1189,89.4295,270.6835,3.738e-05,3.07e-06,0.0,0 STARLINK-4055,1 53161U 22083AF  24197.57542004  .00000307  00000-0  37380-4 0  9996,2 53161  53.2190 347.1189 0001205  89.4295 270.6835 15.08834846110466,6917.896,95.438,540.595,538.928,0.0
53161.0,STARLINK-4055,PAYLOAD,2024-07-15 15:23:59,15.08836451,0.0001242,53.219,346.8201,89.44,270.6734,4.2085e-05,3.82e-06,0.0,0 STARLINK-4055,1 53161U 22083AF  24197.64165990  .00000382  00000-0  42085-4 0  9990,2 53161  53.2190 346.8201 0001242  89.4400 270.6734 15.08836451110479,6917.891,95.438,540.615,538.897,0.0
53161.0,STARLINK-4055,PAYLOAD,2024-07-16 13:39:23,15.08839618,0.0001353,53.2181,342.6548,70.5822,289.5316,3.7675e-05,3.12e-06,0.0,0 STARLINK-4055,1 53161U 22083AF  24198.56902063  .00000312  00000-0  37675-4 0  9994,2 53161  53.2181 342.6548 0001353  70.5822 289.5316 15.08839618110618,6917.882,95.438,540.683,538.811,0.0
53161.0,STARLINK-4055,PAYLOAD,2024-07-16 15:14:45,15.08846957,0.0001404,53.2196,342.3588,111.0368,249.0775,8.1168e-05,1.004e-05,0.0,0 STARLINK-4055,1 53161U 22083AF  24198.63525217  .00001004  00000-0  81168-4 0  9999,2 53161  53.2196 342.3588 0001404 111.0368 249.0775 15.08846957111253,6917.859,95.437,540.695,538.753,0.0
53161.0,STARLINK-4055,PAYLOAD,2024-07-17 13:30:10,15.08834826,0.0001247,53.2184,338.1946,91.7343,268.3792,4.4322e-05,4.18e-06,0.0,0 STARLINK-4055,1 53161U 22083AF  24199.56262633  .00000418  00000-0  44322-4 0  9991,2 53161  53.2184 338.1946 0001247  91.7343 268.3792 15.08834826110763,6917.896,95.438,540.624,538.899,0.0
53161.0,STARLINK-4055,PAYLOAD,2024-07-17 16:40:57,15.08837863,0.0001252,53.2176,337.6026,60.6371,299.4746,7.4062e-05,8.91e-06,0.0,0 STARLINK-4055,1 53161U 22083AF  24199.69510572  .00000891  00000-0  74062-4 0  9992,2 53161  53.2176 337.6026 0001252  60.6371 299.4746 15.08837863111410,6917.887,95.438,540.618,538.886,0.0
53161.0,STARLINK-4055,PAYLOAD,2024-07-18 13:20:58,15.08837123,0.0001412,53.2194,333.742,71.0517,289.0628,3.5046e-05,2.7e-06,0.0,0 STARLINK-4055,1 53161U 22083AF  24200.55623180  .00000270  00000-0  35046-4 0  9990,2 53161  53.2194 333.7420 0001412  71.0517 289.0628 15.08837123110918,6917.889,95.438,540.731,538.777,0.0
53161.0,STARLINK-4055,PAYLOAD,2024-07-18 16:31:43,15.08853659,0.0001139,53.2184,333.139,81.5605,278.5516,0.00013585,1.876e-05,0.0,0 STARLINK-4055,1 53161U 22083AF  24200.68869703  .00001876  00000-0  13585-3 0  9993,2 53161  53.2184 333.1390 0001139  81.5605 278.5516 15.08853659111560,6917.839,95.437,540.492,538.916,0.0
53161.0,STARLINK-4055,PAYLOAD,2024-07-19 13:11:44,15.08845107,0.0001195,53.2183,329.2809,72.067,288.0452,7.8688e-05,9.65e-06,0.0,0 STARLINK-4055,1 53161U 22083AF  24201.54982210  .00000965  00000-0  78688-4 0  9992,2 53161  53.2183 329.2809 0001195  72.0670 288.0452 15.08845107111697,6917.865,95.437,540.556,538.903,0.0
53161.0,STARLINK-4055,PAYLOAD,2024-07-19 14:47:07,15.08846046,0.000103,53.2178,328.9822,83.4706,276.6403,7.7604e-05,9.48e-06,0.0,0 STARLINK-4055,1 53161U 22083AF  24201.61606027  .00000948  00000-0  77604-4 0  9997,2 53161  53.2178 328.9822 0001030  83.4706 276.6403 15.08846046111070,6917.862,95.437,540.439,539.014,0.0
53161.0,STARLINK-4055,PAYLOAD,2024-07-20 14:37:54,15.08853175,0.0001391,53.218,324.5164,101.3693,258.7456,1.5538e-05,-4.1e-07,0.0,0 STARLINK-4055,1 53161U 22083AF  24202.60965541 -.00000041  00000-0  15538-4 0  9999,2 53161  53.2180 324.5164 0001391 101.3693 258.7456 15.08853175111226,6917.84,95.437,540.667,538.743,0.0
53161.0,STARLINK-4055,PAYLOAD,2024-07-21 01:45:36,15.08842808,9.22e-05,53.2164,322.4371,104.2417,255.8678,1.1254e-05,-1.09e-06,0.0,0 STARLINK-4055,1 53161U 22083AF  24203.07333946 -.00000109  00000-0  11254-4 0  9995,2 53161  53.2164 322.4371 0000922 104.2417 255.8678 15.08842808111922,6917.872,95.437,540.375,539.099,0.0
53161.0,STARLINK-4055,PAYLOAD,2024-07-21 12:53:19,15.08842106,0.000151,53.2196,320.3542,103.9294,256.1866,-0.00013104,-2.373e-05,0.0,0 STARLINK-4055,1 53161U 22083AF  24203.53702705 -.00002373  00000-0 -13104-3 0  9990,2 53161  53.2196 320.3542 0001510 103.9294 256.1866 15.08842106111998,6917.874,95.437,540.784,538.694,0.0
53161.0,STARLINK-4055,PAYLOAD,2024-07-21 14:28:42,15.08837489,0.0001233,53.2196,320.0579,106.6596,253.4531,-8.1474e-05,-1.584e-05,0.0,0 STARLINK-4055,1 53161U 22083AF  24203.60326803 -.00001584  00000-0 -81474-4 0  9998,2 53161  53.2196 320.0579 0001233 106.6596 253.4531 15.08837489111371,6917.888,95.438,540.606,538.9,0.0
53161.0,STARLINK-4055,PAYLOAD,2024-07-22 17:30:14,15.0884379,0.000114,53.2172,315.0045,95.0428,265.0694,6.3959e-05,7.3e-06,0.0,0 STARLINK-4055,1 53161U 22083AF  24204.72933829  .00000730  00000-0  63959-4 0  9992,2 53161  53.2172 315.0045 0001140  95.0428 265.0694 15.08843790112179,6917.869,95.437,540.522,538.945,0.0
53161.0,STARLINK-4055,PAYLOAD,2024-07-23 07:48:43,15.08838401,0.0001725,53.2179,312.3227,93.5821,266.5368,-8.8497e-06,-4.29e-06,0.0,0 STARLINK-4055,1 53161U 22083AF  24205.32550771 -.00000429  00000-0 -88497-5 0  9992,2 53161  53.2179 312.3227 0001725  93.5821 266.5368 15.08838401112264,6917.885,95.438,540.944,538.557,0.0
53161.0,STARLINK-4055,PAYLOAD,2024-07-23 14:10:15,15.08848334,0.0003487,53.2184,311.1343,100.6675,259.471,0.00021377,3.116e-05,0.0,0 STARLINK-4055,1 53161U 22083AF  24205.59045664  .00003116  00000-0  21377-3 0  9997,2 53161  53.2184 311.1343 0003487 100.6675 259.4710 15.08848334111672,6917.855,95.437,542.132,537.308,0.0
53161.0,STARLINK-4055,PAYLOAD,2024-07-24 06:04:06,15.08850834,0.0001478,53.218,308.1627,95.6356,264.4805,8.0316e-05,9.91e-06,0.0,0 STARLINK-4055,1 53161U 22083AF  24206.25284972  .00000991  00000-0  80316-4 0  9995,2 53161  53.2180 308.1627 0001478  95.6356 264.4805 15.08850834111776,6917.847,95.437,540.735,538.69,0.0
